{
  "norad_id": 58672,
  "name": "STARLINK-31104",
  "history": [
    {
      "epoch": "2026-03-28T22:52:39.384768Z",
      "apogee_km": 466.66514029790324,
      "perigee_km": 450.6902390939604,
      "latitude_deg": 7.57461110068936e-07,
      "longitude_deg": 164.96321173175897,
      "height_km": 462.0568397091597,
      "semi_major_axis_km": 6836.8146896959315,
      "eccentricity": 0.0011683,
      "inclination_deg": 42.9982,
      "raan_deg": 334.4936,
      "arg_perigee_deg": 243.1944,
      "mean_anomaly_deg": 116.7716,
      "mean_motion_rev_day": 15.35755393
    }
  ]
}