{"fetched_at":"2026-03-29T16:36:15Z","count":15609,"tles":[{"name":"STARLINK-31104","line1":"1 58672U 23211F   26087.95323362  .00041876  00000+0  11773-2 0  9999","line2":"2 58672  42.9982 334.4936 0011683 243.1944 116.7716 15.35755393126714","category":"Starlink"}]}